[{"OBJECT_NAME":"ONEWEB-0613","OBJECT_ID":"2023-043AB","EPOCH":"2026-03-09T14:52:44.839488","MEAN_MOTION":13.15547755,"ECCENTRICITY":0.0001756,"INCLINATION":87.8937,"RA_OF_ASC_NODE":279.1082,"ARG_OF_PERICENTER":96.6869,"MEAN_ANOMALY":263.4461,"EPHEMERIS_TYPE":0,"CLASSIFICATION_TYPE":"U","NORAD_CAT_ID":56071,"ELEMENT_SET_NO":999,"REV_AT_EPOCH":14334,"BSTAR":-0.00018646,"MEAN_MOTION_DOT":-5.7e-7,"MEAN_MOTION_DDOT":0},{"OBJECT_NAME":"COSMOS 203","OBJECT_ID":"1968-011A","EPOCH":"2026-03-09T23:04:05.773152","MEAN_MOTION":13.18301238,"ECCENTRICITY":0.00116371,"INCLINATION":74.0493,"RA_OF_ASC_NODE":242.7825,"ARG_OF_PERICENTER":100.2943,"MEAN_ANOMALY":14.0279,"EPHEMERIS_TYPE":0,"CLASSIFICATION_TYPE":"U","NORAD_CAT_ID":3129,"ELEMENT_SET_NO":999,"REV_AT_EPOCH":79290,"BSTAR":0.00051334584,"MEAN_MOTION_DOT":1.82e-6,"MEAN_MOTION_DDOT":0}]
